ORBCOMM FM108 [+]       
1 41187U 15081J   24073.16755154  .00000985  00000+0  25754-3 0  9993
2 41187  47.0042 121.1388 0002832 332.4217  27.6518 14.56350077439633
ORBCOMM FM117 [+]       
1 41188U 15081K   24072.85904338  .00001062  00000+0  27466-3 0  9998
2 41188  47.0001 121.5060 0003112 344.0539  16.0248 14.56353957439607
ORBCOMM FM116 [+]       
1 41189U 15081L   24072.64270502  .00000985  00000+0  25765-3 0  9998
2 41189  47.0003 212.3411 0001326 115.9260 244.1762 14.56305246438332
